NORAD_CAT_ID,OBJECT_NAME,OBJECT_TYPE,EPOCH,MEAN_MOTION,ECCENTRICITY,INCLINATION,RA_OF_ASC_NODE,ARG_OF_PERICENTER,MEAN_ANOMALY,BSTAR,MEAN_MOTION_DOT,MEAN_MOTION_DDOT,TLE_LINE0,TLE_LINE1,TLE_LINE2,SEMIMAJOR_AXIS,PERIOD,APOGEE,PERIGEE,DECAYED
53253.0,STARLINK-4133,PAYLOAD,2023-08-21 23:01:26,15.08848489,0.0001368,53.217,52.3294,82.6076,277.5071,0.00016785,2.385e-05,0.0,0 STARLINK-4133,1 53253U 22086M   23233.95933891  .00002385  00000-0  16785-3 0  9994,2 53253  53.2170  52.3294 0001368  82.6076 277.5071 15.08848489 60370,6917.854,95.437,540.666,538.773,0.0
53253.0,STARLINK-4133,PAYLOAD,2023-08-22 11:44:32,15.08841307,0.0001647,53.2159,49.9495,83.163,276.9549,8.7877e-05,1.111e-05,0.0,0 STARLINK-4133,1 53253U 22086M   23234.48926288  .00001111  00000-0  87877-4 0  9992,2 53253  53.2159  49.9495 0001647  83.1630 276.9549 15.08841307 60458,6917.876,95.437,540.881,538.602,0.0
53253.0,STARLINK-4133,PAYLOAD,2023-08-24 11:26:06,15.08837641,0.0001671,53.2165,41.0319,70.146,289.9712,5.5978e-05,6.03e-06,0.0,0 STARLINK-4133,1 53253U 22086M   23236.47646708  .00000603  00000-0  55978-4 0  9991,2 53253  53.2165  41.0319 0001671  70.1460 289.9712 15.08837641 60932,6917.888,95.438,540.909,538.597,0.0
53253.0,STARLINK-4133,PAYLOAD,2023-08-25 11:16:53,15.08839722,0.0001219,53.2177,36.57,76.3707,283.7421,0.00011609,1.56e-05,0.0,0 STARLINK-4133,1 53253U 22086M   23237.47006475  .00001560  00000-0  11609-3 0  9998,2 53253  53.2177  36.5700 0001219  76.3707 283.7421 15.08839722 61086,6917.881,95.438,540.59,538.903,0.0
53253.0,STARLINK-4133,PAYLOAD,2023-08-25 17:38:25,15.08845051,0.0001229,53.2171,35.3778,91.8131,268.3002,0.00011814,1.593e-05,0.0,0 STARLINK-4133,1 53253U 22086M   23237.73502138  .00001593  00000-0  11814-3 0  9998,2 53253  53.2171  35.3778 0001229  91.8131 268.3002 15.08845051 60946,6917.865,95.437,540.58,538.88,0.0
53253.0,STARLINK-4133,PAYLOAD,2023-08-26 11:07:40,15.08835861,0.0001294,53.2168,32.1074,92.2508,267.8633,5.6117e-05,6.05e-06,0.0,0 STARLINK-4133,1 53253U 22086M   23238.46366679  .00000605  00000-0  56117-4 0  9996,2 53253  53.2168  32.1074 0001294  92.2508 267.8633 15.08835861 61056,6917.893,95.438,540.653,538.863,0.0
53253.0,STARLINK-4133,PAYLOAD,2023-08-26 15:53:50,15.08840192,0.0001333,53.2173,31.2157,96.0108,264.1036,9.0008e-05,1.145e-05,0.0,0 STARLINK-4133,1 53253U 22086M   23238.66238465  .00001145  00000-0  90008-4 0  9996,2 53253  53.2173  31.2157 0001333  96.0108 264.1036 15.08840192 61269,6917.88,95.438,540.667,538.823,0.0
53253.0,STARLINK-4133,PAYLOAD,2023-08-27 09:23:04,15.0883971,0.0001225,53.217,27.9447,92.6528,267.4604,2.558e-05,1.19e-06,0.0,0 STARLINK-4133,1 53253U 22086M   23239.39102565  .00000119  00000-0  25580-4 0  9991,2 53253  53.2170  27.9447 0001225  92.6528 267.4604 15.08839710 61371,6917.881,95.438,540.594,538.899,0.0
53253.0,STARLINK-4133,PAYLOAD,2023-08-27 17:20:00,15.08844457,0.0001136,53.2178,26.4576,94.6044,265.5078,8.2651e-05,1.028e-05,0.0,0 STARLINK-4133,1 53253U 22086M   23239.72222540  .00001028  00000-0  82651-4 0  9996,2 53253  53.2178  26.4576 0001136  94.6044 265.5078 15.08844457 61246,6917.867,95.437,540.518,538.946,0.0
53253.0,STARLINK-4133,PAYLOAD,2023-08-28 02:52:19,15.08836631,0.0001384,53.2183,24.6744,81.667,278.4479,-2.2287e-05,-6.43e-06,0.0,0 STARLINK-4133,1 53253U 22086M   23240.11966895 -.00000643  00000-0 -22287-4 0  9992,2 53253  53.2183  24.6744 0001384  81.6670 278.4479 15.08836631 61305,6917.891,95.438,540.713,538.798,0.0
53253.0,STARLINK-4133,PAYLOAD,2023-08-28 17:10:47,15.08838855,0.0001258,53.2181,21.9977,88.2806,271.833,6.2849e-05,7.12e-06,0.0,0 STARLINK-4133,1 53253U 22086M   23240.71583209  .00000712  00000-0  62849-4 0  9995,2 53253  53.2181  21.9977 0001258  88.2806 271.8330 15.08838855 61577,6917.884,95.438,540.619,538.879,0.0
53253.0,STARLINK-4133,PAYLOAD,2023-08-29 15:26:11,15.08845618,0.0001262,53.2177,17.8355,77.8911,282.2223,0.00015613,2.198e-05,0.0,0 STARLINK-4133,1 53253U 22086M   23241.64318662  .00002198  00000-0  15613-3 0  9993,2 53253  53.2177  17.8355 0001262  77.8911 282.2223 15.08845618 61530,6917.863,95.437,540.601,538.855,0.0
53253.0,STARLINK-4133,PAYLOAD,2023-08-30 15:16:57,15.08853563,0.0001105,53.2185,13.3755,84.8453,275.2665,0.00023609,3.473e-05,0.0,0 STARLINK-4133,1 53253U 22086M   23242.63677525  .00003473  00000-0  23609-3 0  9990,2 53253  53.2185  13.3755 0001105  84.8453 275.2665 15.08853563 61865,6917.839,95.437,540.468,538.94,0.0
53253.0,STARLINK-4133,PAYLOAD,2023-08-31 08:46:14,15.0881678,0.0001469,53.218,10.1071,88.1144,272.0016,3.1783e-05,2.18e-06,0.0,0 STARLINK-4133,1 53253U 22086M   23243.36544230  .00000218  00000-0  31783-4 0  9994,2 53253  53.2180  10.1071 0001469  88.1144 272.0016 15.08816780 61790,6917.951,95.439,540.833,538.8,0.0
53253.0,STARLINK-4133,PAYLOAD,2023-09-01 08:37:00,15.08828164,0.0002056,53.2149,5.6415,103.5499,256.5722,0.00011812,1.592e-05,0.0,0 STARLINK-4133,1 53253U 22086M   23244.35903153  .00001592  00000-0  11812-3 0  9993,2 53253  53.2149   5.6415 0002056 103.5499 256.5722 15.08828164 61941,6917.917,95.438,541.204,538.359,0.0
53253.0,STARLINK-4133,PAYLOAD,2023-09-01 11:47:46,15.08828653,0.0002032,53.217,5.0467,105.9601,254.1615,0.0001288,1.762e-05,0.0,0 STARLINK-4133,1 53253U 22086M   23244.49151199  .00001762  00000-0  12880-3 0  9998,2 53253  53.2170   5.0467 0002032 105.9601 254.1615 15.08828653 62142,6917.915,95.438,541.186,538.374,0.0
53253.0,STARLINK-4133,PAYLOAD,2023-09-01 14:58:32,15.08834262,0.0001388,53.2173,4.455,90.6371,269.478,0.00026322,3.903e-05,0.0,0 STARLINK-4133,1 53253U 22086M   23244.62398491  .00003903  00000-0  26322-3 0  9996,2 53253  53.2173   4.4550 0001388  90.6371 269.4780 15.08834262 61984,6917.898,95.438,540.723,538.803,0.0
53253.0,STARLINK-4133,PAYLOAD,2023-09-02 08:27:47,15.08832724,0.000154,53.2169,1.185,87.4672,272.6497,0.00017511,2.499e-05,0.0,0 STARLINK-4133,1 53253U 22086M   23245.35263393  .00002499  00000-0  17511-3 0  9998,2 53253  53.2169   1.1850 0001540  87.4672 272.6497 15.08832724 62099,6917.903,95.438,540.833,538.702,0.0
53253.0,STARLINK-4133,PAYLOAD,2023-09-02 13:13:56,15.0883562,0.0001492,53.219,0.292,98.1221,261.9941,0.00022766,3.337e-05,0.0,0 STARLINK-4133,1 53253U 22086M   23245.55135163  .00003337  00000-0  22766-3 0  9993,2 53253  53.2190   0.2920 0001492  98.1221 261.9941 15.08835620 62303,6917.894,95.438,540.791,538.727,0.0
53253.0,STARLINK-4133,PAYLOAD,2023-09-02 14:49:19,15.08836799,0.0001351,53.2195,359.9962,92.3331,267.7816,0.0002783,4.144e-05,0.0,0 STARLINK-4133,1 53253U 22086M   23245.61759114  .00004144  00000-0  27830-3 0  9992,2 53253  53.2195 359.9962 0001351  92.3331 267.7816 15.08836799 62314,6917.89,95.438,540.69,538.821,0.0
53253.0,STARLINK-4133,PAYLOAD,2023-09-03 00:21:37,15.08857075,0.0001157,53.2194,358.2122,88.5153,271.5972,-2.1324e-05,-6.27e-06,0.0,0 STARLINK-4133,1 53253U 22086M   23246.01502260 -.00000627  00000-0 -21324-4 0  9992,2 53253  53.2194 358.2122 0001157  88.5153 271.5972 15.08857075 62198,6917.828,95.436,540.494,538.893,0.0
53253.0,STARLINK-4133,PAYLOAD,2023-09-03 08:18:33,15.08847312,0.0001685,53.2175,356.7238,95.4133,264.7052,6.2643e-05,7.09e-06,0.0,0 STARLINK-4133,1 53253U 22086M   23246.34622560  .00000709  00000-0  62643-4 0  9992,2 53253  53.2175 356.7238 0001685  95.4133 264.7052 15.08847312 62241,6917.858,95.437,540.889,538.557,0.0
53253.0,STARLINK-4133,PAYLOAD,2023-09-03 14:40:06,15.08849086,0.0001695,53.2175,355.5343,93.6121,266.5065,7.6921e-05,9.37e-06,0.0,0 STARLINK-4133,1 53253U 22086M   23246.61118316  .00000937  00000-0  76921-4 0  9998,2 53253  53.2175 355.5343 0001695  93.6121 266.5065 15.08849086 62461,6917.853,95.437,540.89,538.545,0.0
53253.0,STARLINK-4133,PAYLOAD,2023-09-04 00:12:25,15.08836427,0.000161,53.2191,353.7518,91.9763,268.1413,-5.4231e-05,-1.151e-05,0.0,0 STARLINK-4133,1 53253U 22086M   23247.00863028 -.00001151  00000-0 -54231-4 0  9990,2 53253  53.2191 353.7518 0001610  91.9763 268.1413 15.08836427 62340,6917.891,95.438,540.87,538.643,0.0
53253.0,STARLINK-4133,PAYLOAD,2023-09-04 16:06:17,15.08826736,0.0001883,53.2178,350.7755,87.1608,272.9599,-0.0001964,-3.411e-05,0.0,0 STARLINK-4133,1 53253U 22086M   23247.67103918 -.00003411  00000-0 -19640-3 0  9993,2 53253  53.2178 350.7755 0001883  87.1608 272.9599 15.08826736 62443,6917.921,95.438,541.089,538.483,0.0
53253.0,STARLINK-4133,PAYLOAD,2023-09-05 09:35:32,15.08839326,0.000144,53.2189,347.5049,91.8101,268.3056,0.00010584,1.397e-05,0.0,0 STARLINK-4133,1 53253U 22086M   23248.39967744  .00001397  00000-0  10584-3 0  9995,2 53253  53.2189 347.5049 0001440  91.8101 268.3056 15.08839326 62552,6917.882,95.438,540.744,538.751,0.0
53253.0,STARLINK-4133,PAYLOAD,2023-09-05 23:53:59,15.08862217,0.0001429,53.2178,344.8287,96.5729,263.5426,-0.00029297,-4.95e-05,0.0,0 STARLINK-4133,1 53253U 22086M   23248.99582336 -.00004950  00000-0 -29297-3 0  9992,2 53253  53.2178 344.8287 0001429  96.5729 263.5426 15.08862217 62642,6917.812,95.436,540.666,538.689,0.0
53253.0,STARLINK-4133,PAYLOAD,2023-09-06 09:26:17,15.08874116,0.0001706,53.2175,343.0448,83.5463,276.5723,-0.00072344,-0.00011794,0.0,0 STARLINK-4133,1 53253U 22086M   23249.39325694 -.00011794  00000-0 -72344-3 0  9994,2 53253  53.2175 343.0448 0001706  83.5463 276.5723 15.08874116 62889,6917.776,95.435,540.821,538.461,0.0
53253.0,STARLINK-4133,PAYLOAD,2023-09-06 23:44:47,15.08843719,0.0001577,53.2176,340.3665,98.1831,261.934,0.00019906,2.882e-05,0.0,0 STARLINK-4133,1 53253U 22086M   23249.98943769  .00002882  00000-0  19906-3 0  9999,2 53253  53.2176 340.3665 0001577  98.1831 261.9340 15.08843719 62796,6917.869,95.437,540.825,538.643,0.0
53253.0,STARLINK-4133,PAYLOAD,2023-09-07 09:17:06,15.08842702,0.0001722,53.217,338.5827,94.0958,266.0231,7.4362e-05,8.96e-06,0.0,0 STARLINK-4133,1 53253U 22086M   23250.38687759  .00000896  00000-0  74362-4 0  9990,2 53253  53.2170 338.5827 0001722  94.0958 266.0231 15.08842702 63030,6917.872,95.437,540.928,538.546,0.0
